STARLINK-1199           
1 45201U 20012Z   26068.25932625 -.00002037  00000+0 -58259-4 0  9999
2 45201  53.1569  25.8332 0001623  88.0191 272.0995 15.29352067335099
NUSAT-49 (KLARA DAN VO*)
1 60500U 24149AJ  26068.79810190  .00012912  00000+0  43568-3 0  9991
2 60500  97.3807 150.7380 0001132 286.7761  73.3356 15.30828857 86935
